

*******************************************************************************
Ephemeris / WWW_USER Thu May  4 19:54:37 2023 Pasadena, USA      / Horizons
*******************************************************************************
Target body name: Neptune (899)                   {source: nep102_merged}
Center body name: Sun (10)                        {source: DE441}
Center-site name: BODY CENTER
*******************************************************************************
Start time      : A.D. 1963-Jan-01 00:00:00.0000 TDB
Stop  time      : A.D. 2023-Jan-01 00:00:00.0000 TDB
Step-size       : 4320 minutes
*******************************************************************************
Center geodetic : 0.0, 0.0, 0.0                   {E-lon(deg),Lat(deg),Alt(km)}
Center cylindric: 0.0, 0.0, 0.0                   {E-lon(deg),Dxy(km),Dz(km)}
Center radii    : 696000.0, 696000.0, 696000.0 km {Equator_a, b, pole_c}
Output units    : KM-S
Calendar mode   : Mixed Julian/Gregorian
Output type     : GEOMETRIC cartesian states
Output format   : 1 (position only)
Reference frame : Ecliptic of J2000.0
*******************************************************************************
            JDTDB,            Calendar Date (TDB),                      X,                      Y,                      Z,
**************************************************************************************************************************
$$SOE
2456453.500000000, A.D. 2013-Jun-10 00:00:00.0000,  4.007126183521408E+09, -2.015584510057504E+09, -5.082299232528901E+07,
2456456.500000000, A.D. 2013-Jun-13 00:00:00.0000,  4.007747005023581E+09, -2.014317600403221E+09, -5.086334925450432E+07,
2456459.500000000, A.D. 2013-Jun-16 00:00:00.0000,  4.008367449488636E+09, -2.013050447287112E+09, -5.090366018549299E+07,
2456462.500000000, A.D. 2013-Jun-19 00:00:00.0000,  4.008987498247968E+09, -2.011783076084958E+09, -5.094393454899728E+07,
2456465.500000000, A.D. 2013-Jun-22 00:00:00.0000,  4.009607121436727E+09, -2.010515573980725E+09, -5.098423097625816E+07,
2456468.500000000, A.D. 2013-Jun-25 00:00:00.0000,  4.010226328090596E+09, -2.009247943857752E+09, -5.102455912138307E+07,
2456471.500000000, A.D. 2013-Jun-28 00:00:00.0000,  4.010845129955979E+09, -2.007980181614971E+09, -5.106492419541168E+07,
2456474.500000000, A.D. 2013-Jul-01 00:00:00.0000,  4.011463538767905E+09, -2.006712283150850E+09, -5.110533140894353E+07,
2456477.500000000, A.D. 2013-Jul-04 00:00:00.0000,  4.012081566248781E+09, -2.005444244363897E+09, -5.114578597199821E+07,
2456480.500000000, A.D. 2013-Jul-07 00:00:00.0000,  4.012699224107134E+09, -2.004176061153643E+09, -5.118629309390879E+07,
2456483.500000000, A.D. 2013-Jul-10 00:00:00.0000,  4.013316502806143E+09, -2.002907683013754E+09, -5.122679831045425E+07,
2456486.500000000, A.D. 2013-Jul-13 00:00:00.0000,  4.013933378321068E+09, -2.001639068212000E+09, -5.126724425139117E+07,
2456489.500000000, A.D. 2013-Jul-16 00:00:00.0000,  4.014549840604256E+09, -2.000370225816356E+09, -5.130763176589453E+07,
2456492.500000000, A.D. 2013-Jul-19 00:00:00.0000,  4.015165879589924E+09, -1.999101164905331E+09, -5.134796170250332E+07,
2456495.500000000, A.D. 2013-Jul-22 00:00:00.0000,  4.015781485194000E+09, -1.997831894572589E+09, -5.138823490939152E+07,
2456498.500000000, A.D. 2013-Jul-25 00:00:00.0000,  4.016396647315217E+09, -1.996562423932976E+09, -5.142845223487031E+07,
2456501.500000000, A.D. 2013-Jul-28 00:00:00.0000,  4.017011361730090E+09, -1.995292763894865E+09, -5.146862069988549E+07,
2456504.500000000, A.D. 2013-Jul-31 00:00:00.0000,  4.017625699203405E+09, -1.994022940678733E+09, -5.150881917057550E+07,
2456507.500000000, A.D. 2013-Aug-03 00:00:00.0000,  4.018239686618061E+09, -1.992752952120501E+09, -5.154906626127422E+07,
2456510.500000000, A.D. 2013-Aug-06 00:00:00.0000,  4.018853328396463E+09, -1.991482787562966E+09, -5.158935535134351E+07,
2456513.500000000, A.D. 2013-Aug-09 00:00:00.0000,  4.019466629016616E+09, -1.990212436374690E+09, -5.162967982687473E+07,
2456516.500000000, A.D. 2013-Aug-12 00:00:00.0000,  4.020079593026767E+09, -1.988941887914492E+09, -5.167003307904816E+07,
2456519.500000000, A.D. 2013-Aug-15 00:00:00.0000,  4.020692225033013E+09, -1.987671131487105E+09, -5.171040849928772E+07,
2456522.500000000, A.D. 2013-Aug-18 00:00:00.0000,  4.021304499295900E+09, -1.986400166488705E+09, -5.175078566762698E+07,
2456525.500000000, A.D. 2013-Aug-21 00:00:00.0000,  4.021916320757864E+09, -1.985129024178242E+09, -5.179112079598594E+07,
2456528.500000000, A.D. 2013-Aug-24 00:00:00.0000,  4.022527684291302E+09, -1.983857715387519E+09, -5.183142013091207E+07,
2456531.500000000, A.D. 2013-Aug-27 00:00:00.0000,  4.023138592251084E+09, -1.982586248766624E+09, -5.187169367118931E+07,
2456534.500000000, A.D. 2013-Aug-30 00:00:00.0000,  4.023749046938358E+09, -1.981314632991700E+09, -5.191195141181242E+07,
2456537.500000000, A.D. 2013-Sep-02 00:00:00.0000,  4.024359050620021E+09, -1.980042876776115E+09, -5.195220334663463E+07,
2456540.500000000, A.D. 2013-Sep-05 00:00:00.0000,  4.024968605544832E+09, -1.978770988871681E+09, -5.199245946989799E+07,
2456543.500000000, A.D. 2013-Sep-08 00:00:00.0000,  4.025577771623821E+09, -1.977498925040044E+09, -5.203272452684391E+07,
2456546.500000000, A.D. 2013-Sep-11 00:00:00.0000,  4.026186601395068E+09, -1.976226632974399E+09, -5.207299004141092E+07,
2456549.500000000, A.D. 2013-Sep-14 00:00:00.0000,  4.026795086044602E+09, -1.974954109369932E+09, -5.211324617760694E+07,
2456552.500000000, A.D. 2013-Sep-17 00:00:00.0000,  4.027403216764317E+09, -1.973681350944419E+09, -5.215348310061312E+07,
2456555.500000000, A.D. 2013-Sep-20 00:00:00.0000,  4.028010984753209E+09, -1.972408354435381E+09, -5.219369097664893E+07,
2456558.500000000, A.D. 2013-Sep-23 00:00:00.0000,  4.028618381218050E+09, -1.971135116597875E+09, -5.223385997284675E+07,
2456561.500000000, A.D. 2013-Sep-26 00:00:00.0000,  4.029225394209579E+09, -1.969861641203804E+09, -5.227398436709464E+07,
2456564.500000000, A.D. 2013-Sep-29 00:00:00.0000,  4.029831979815065E+09, -1.968588016168030E+09, -5.231411247259676E+07,
2456567.500000000, A.D. 2013-Oct-02 00:00:00.0000,  4.030438135353154E+09, -1.967314266657426E+09, -5.235426563343620E+07,
2456570.500000000, A.D. 2013-Oct-05 00:00:00.0000,  4.031043872306648E+09, -1.966040389877092E+09, -5.239444993330419E+07,
2456573.500000000, A.D. 2013-Oct-08 00:00:00.0000,  4.031649202166134E+09, -1.964766383045138E+09, -5.243467145649564E+07,
2456576.500000000, A.D. 2013-Oct-11 00:00:00.0000,  4.032254136429627E+09, -1.963492243393099E+09, -5.247493628794277E+07,
2456579.500000000, A.D. 2013-Oct-14 00:00:00.0000,  4.032858686602264E+09, -1.962217968167093E+09, -5.251525051331902E+07,
2456582.500000000, A.D. 2013-Oct-17 00:00:00.0000,  4.033462858247781E+09, -1.960943531924488E+09, -5.255559443387151E+07,
2456585.500000000, A.D. 2013-Oct-20 00:00:00.0000,  4.034066633291944E+09, -1.959668863482841E+09, -5.259588742425799E+07,
2456588.500000000, A.D. 2013-Oct-23 00:00:00.0000,  4.034670000023570E+09, -1.958393965767992E+09, -5.263612295723808E+07,
2456591.500000000, A.D. 2013-Oct-26 00:00:00.0000,  4.035272947825010E+09, -1.957118847626431E+09, -5.267630083869100E+07,
2456594.500000000, A.D. 2013-Oct-29 00:00:00.0000,  4.035875466107404E+09, -1.955843517941123E+09, -5.271642087929511E+07,
2456597.500000000, A.D. 2013-Nov-01 00:00:00.0000,  4.036477544329920E+09, -1.954567985631560E+09, -5.275648289637041E+07,
2456600.500000000, A.D. 2013-Nov-04 00:00:00.0000,  4.037079172024076E+09, -1.953292259641179E+09, -5.279648671516144E+07,
2456603.500000000, A.D. 2013-Nov-07 00:00:00.0000,  4.037680389024738E+09, -1.952016368639637E+09, -5.283648921808863E+07,
2456606.500000000, A.D. 2013-Nov-10 00:00:00.0000,  4.038281246011726E+09, -1.950740328391578E+09, -5.287654356217229E+07,
2456609.500000000, A.D. 2013-Nov-13 00:00:00.0000,  4.038881748884764E+09, -1.949464128410700E+09, -5.291664398715746E+07,
2456612.500000000, A.D. 2013-Nov-16 00:00:00.0000,  4.039481903544498E+09, -1.948187758113086E+09, -5.295678472458446E+07,
2456615.500000000, A.D. 2013-Nov-19 00:00:00.0000,  4.040081715851588E+09, -1.946911206844146E+09, -5.299695999633849E+07,
2456618.500000000, A.D. 2013-Nov-22 00:00:00.0000,  4.040681191613924E+09, -1.945634463917517E+09, -5.303716401675498E+07,
2456621.500000000, A.D. 2013-Nov-25 00:00:00.0000,  4.041280329117889E+09, -1.944357520403547E+09, -5.307738688521636E+07,
2456624.500000000, A.D. 2013-Nov-28 00:00:00.0000,  4.041879035605800E+09, -1.943080394453270E+09, -5.311757395359969E+07,
2456627.500000000, A.D. 2013-Dec-01 00:00:00.0000,  4.042477282897654E+09, -1.941803101080045E+09, -5.315771731200540E+07,
2456630.500000000, A.D. 2013-Dec-04 00:00:00.0000,  4.043075072408107E+09, -1.940525649765450E+09, -5.319782664111400E+07,
2456633.500000000, A.D. 2013-Dec-07 00:00:00.0000,  4.043672405559011E+09, -1.939248049997293E+09, -5.323791162319505E+07,
2456636.500000000, A.D. 2013-Dec-10 00:00:00.0000,  4.044269283782144E+09, -1.937970311264326E+09, -5.327798194203341E+07,
2456639.500000000, A.D. 2013-Dec-13 00:00:00.0000,  4.044865708519818E+09, -1.936692443051747E+09, -5.331804728272283E+07,
2456642.500000000, A.D. 2013-Dec-16 00:00:00.0000,  4.045461708573610E+09, -1.935414433227073E+09, -5.335811819895971E+07,
2456645.500000000, A.D. 2013-Dec-19 00:00:00.0000,  4.046057370101085E+09, -1.934136214653523E+09, -5.339819803034818E+07,
2456648.500000000, A.D. 2013-Dec-22 00:00:00.0000,  4.046652692527320E+09, -1.932857777879061E+09, -5.343827724755323E+07,
2456651.500000000, A.D. 2013-Dec-25 00:00:00.0000,  4.047247668277262E+09, -1.931579118586291E+09, -5.347834573805654E+07,
2456654.500000000, A.D. 2013-Dec-28 00:00:00.0000,  4.047842289778402E+09, -1.930300232443828E+09, -5.351839338953185E+07,
2456657.500000000, A.D. 2013-Dec-31 00:00:00.0000,  4.048436549458425E+09, -1.929021115106028E+09, -5.355841008968568E+07,
